CCSDS_OMM_VERS = 2.0
CREATION_DATE  = 
ORIGINATOR     = 

OBJECT_NAME    = STARLINK-37220
OBJECT_ID      = 2026-063U
CENTER_NAME    = EARTH
REF_FRAME      = TEME
TIME_SYSTEM    = UTC
MEAN_ELEMENT_THEORY = SGP/SGP4

EPOCH          = 2026-04-02T18:00:02.000160
MEAN_MOTION    = 16.00790582
ECCENTRICITY   = .00020912
INCLINATION    = 97.2815
RA_OF_ASC_NODE = 233.5577
ARG_OF_PERICENTER = 66.0397
MEAN_ANOMALY   = 120.4043

EPHEMERIS_TYPE = 0
CLASSIFICATION_TYPE = U
NORAD_CAT_ID   = 68398
ELEMENT_SET_NO = 999
REV_AT_EPOCH   = 232
BSTAR          = -.43588938E-2
MEAN_MOTION_DOT = -.228389E-1
MEAN_MOTION_DDOT = .15546241E-2

CCSDS_OMM_VERS = 2.0
CREATION_DATE  = 
ORIGINATOR     = 

OBJECT_NAME    = STARLINK-37187
OBJECT_ID      = 2026-063V
CENTER_NAME    = EARTH
REF_FRAME      = TEME
TIME_SYSTEM    = UTC
MEAN_ELEMENT_THEORY = SGP/SGP4

EPOCH          = 2026-04-02T18:00:02.000160
MEAN_MOTION    = 16.00392506
ECCENTRICITY   = .00016257
INCLINATION    = 97.2813
RA_OF_ASC_NODE = 233.5566
ARG_OF_PERICENTER = 66.9644
MEAN_ANOMALY   = 117.1108

EPHEMERIS_TYPE = 0
CLASSIFICATION_TYPE = U
NORAD_CAT_ID   = 68399
ELEMENT_SET_NO = 999
REV_AT_EPOCH   = 232
BSTAR          = -.35747265E-2
MEAN_MOTION_DOT = -.1834573E-1
MEAN_MOTION_DDOT = .10160877E-2

CCSDS_OMM_VERS = 2.0
CREATION_DATE  = 
ORIGINATOR     = 

OBJECT_NAME    = STARLINK-36235
OBJECT_ID      = 2026-063W
CENTER_NAME    = EARTH
REF_FRAME      = TEME
TIME_SYSTEM    = UTC
MEAN_ELEMENT_THEORY = SGP/SGP4

EPOCH          = 2026-04-02T18:00:02.000160
MEAN_MOTION    = 16.00671292
ECCENTRICITY   = .00015361
INCLINATION    = 97.2810
RA_OF_ASC_NODE = 233.5586
ARG_OF_PERICENTER = 80.5141
MEAN_ANOMALY   = 108.5827

EPHEMERIS_TYPE = 0
CLASSIFICATION_TYPE = U
NORAD_CAT_ID   = 68400
ELEMENT_SET_NO = 999
REV_AT_EPOCH   = 232
BSTAR          = -.35610636E-2
MEAN_MOTION_DOT = -.1856481E-1
MEAN_MOTION_DDOT = .1042517E-2

CCSDS_OMM_VERS = 2.0
CREATION_DATE  = 
ORIGINATOR     = 

OBJECT_NAME    = STARLINK-37175
OBJECT_ID      = 2026-063X
CENTER_NAME    = EARTH
REF_FRAME      = TEME
TIME_SYSTEM    = UTC
MEAN_ELEMENT_THEORY = SGP/SGP4

EPOCH          = 2026-04-02T18:00:02.000160
MEAN_MOTION    = 16.00803270
ECCENTRICITY   = .00016053
INCLINATION    = 97.2812
RA_OF_ASC_NODE = 233.5601
ARG_OF_PERICENTER = 70.4024
MEAN_ANOMALY   = 121.2648

EPHEMERIS_TYPE = 0
CLASSIFICATION_TYPE = U
NORAD_CAT_ID   = 68401
ELEMENT_SET_NO = 999
REV_AT_EPOCH   = 232
BSTAR          = -.35380228E-2
MEAN_MOTION_DOT = -.1858405E-1
MEAN_MOTION_DDOT = .10461905E-2

CCSDS_OMM_VERS = 2.0
CREATION_DATE  = 
ORIGINATOR     = 

OBJECT_NAME    = STARLINK-36360
OBJECT_ID      = 2026-063Y
CENTER_NAME    = EARTH
REF_FRAME      = TEME
TIME_SYSTEM    = UTC
MEAN_ELEMENT_THEORY = SGP/SGP4

EPOCH          = 2026-04-02T18:00:02.000160
MEAN_MOTION    = 16.00951512
ECCENTRICITY   = .00014945
INCLINATION    = 97.2811
RA_OF_ASC_NODE = 233.5611
ARG_OF_PERICENTER = 76.7215
MEAN_ANOMALY   = 117.4227

EPHEMERIS_TYPE = 0
CLASSIFICATION_TYPE = U
NORAD_CAT_ID   = 68402
ELEMENT_SET_NO = 999
REV_AT_EPOCH   = 232
BSTAR          = -.35608966E-2
MEAN_MOTION_DOT = -.1885974E-1
MEAN_MOTION_DDOT = .10776431E-2

CCSDS_OMM_VERS = 2.0
CREATION_DATE  = 
ORIGINATOR     = 

OBJECT_NAME    = STARLINK-37218
OBJECT_ID      = 2026-063Z
CENTER_NAME    = EARTH
REF_FRAME      = TEME
TIME_SYSTEM    = UTC
MEAN_ELEMENT_THEORY = SGP/SGP4

EPOCH          = 2026-04-02T18:00:02.000160
MEAN_MOTION    = 16.01196804
ECCENTRICITY   = .00016164
INCLINATION    = 97.2814
RA_OF_ASC_NODE = 233.5637
ARG_OF_PERICENTER = 71.1878
MEAN_ANOMALY   = 127.3881

EPHEMERIS_TYPE = 0
CLASSIFICATION_TYPE = U
NORAD_CAT_ID   = 68403
ELEMENT_SET_NO = 999
REV_AT_EPOCH   = 232
BSTAR          = -.34726075E-2
MEAN_MOTION_DOT = -.1865503E-1
MEAN_MOTION_DDOT = .10586923E-2

CCSDS_OMM_VERS = 2.0
CREATION_DATE  = 
ORIGINATOR     = 

OBJECT_NAME    = STARLINK-37188
OBJECT_ID      = 2026-063AA
CENTER_NAME    = EARTH
REF_FRAME      = TEME
TIME_SYSTEM    = UTC
MEAN_ELEMENT_THEORY = SGP/SGP4

EPOCH          = 2026-04-02T18:00:02.000160
MEAN_MOTION    = 16.01065014
ECCENTRICITY   = .00015997
INCLINATION    = 97.2811
RA_OF_ASC_NODE = 233.5623
ARG_OF_PERICENTER = 68.4936
MEAN_ANOMALY   = 127.6824

EPHEMERIS_TYPE = 0
CLASSIFICATION_TYPE = U
NORAD_CAT_ID   = 68404
ELEMENT_SET_NO = 999
REV_AT_EPOCH   = 232
BSTAR          = -.34951711E-2
MEAN_MOTION_DOT = -.1863513E-1
MEAN_MOTION_DDOT = .10549014E-2

CCSDS_OMM_VERS = 2.0
CREATION_DATE  = 
ORIGINATOR     = 

OBJECT_NAME    = SHIYAN-33
OBJECT_ID      = 2026-064A
CENTER_NAME    = EARTH
REF_FRAME      = TEME
TIME_SYSTEM    = UTC
MEAN_ELEMENT_THEORY = SGP/SGP4

EPOCH          = 2026-04-03T05:56:06.973152
MEAN_MOTION    = 15.23208153
ECCENTRICITY   = .00136025
INCLINATION    = 97.4656
RA_OF_ASC_NODE = 169.1600
ARG_OF_PERICENTER = 203.7706
MEAN_ANOMALY   = 156.2904

EPHEMERIS_TYPE = 0
CLASSIFICATION_TYPE = U
NORAD_CAT_ID   = 68405
ELEMENT_SET_NO = 999
REV_AT_EPOCH   = 108
BSTAR          = .41811318E-3
MEAN_MOTION_DOT = .985E-4
MEAN_MOTION_DDOT = 0

CCSDS_OMM_VERS = 2.0
CREATION_DATE  = 
ORIGINATOR     = 

OBJECT_NAME    = LPNTSAT-001 (IOD-1)
OBJECT_ID      = 2026-065A
CENTER_NAME    = EARTH
REF_FRAME      = TEME
TIME_SYSTEM    = UTC
MEAN_ELEMENT_THEORY = SGP/SGP4

EPOCH          = 2026-04-01T04:04:57.158400
MEAN_MOTION    = 15.18233471
ECCENTRICITY   = .0015408
INCLINATION    = 97.4137
RA_OF_ASC_NODE = 333.2788
ARG_OF_PERICENTER = 273.4606
MEAN_ANOMALY   = 86.4866

EPHEMERIS_TYPE = 0
CLASSIFICATION_TYPE = U
NORAD_CAT_ID   = 68408
ELEMENT_SET_NO = 999
REV_AT_EPOCH   = 57
BSTAR          = .23469E-3
MEAN_MOTION_DOT = .475E-4
MEAN_MOTION_DDOT = 0

CCSDS_OMM_VERS = 2.0
CREATION_DATE  = 
ORIGINATOR     = 

OBJECT_NAME    = LPNTSAT-002 (IOD-2)
OBJECT_ID      = 2026-065B
CENTER_NAME    = EARTH
REF_FRAME      = TEME
TIME_SYSTEM    = UTC
MEAN_ELEMENT_THEORY = SGP/SGP4

EPOCH          = 2026-04-02T10:08:21.772608
MEAN_MOTION    = 15.18229138
ECCENTRICITY   = .00127389
INCLINATION    = 97.4055
RA_OF_ASC_NODE = 334.5080
ARG_OF_PERICENTER = 262.3917
MEAN_ANOMALY   = 97.5871

EPHEMERIS_TYPE = 0
CLASSIFICATION_TYPE = U
NORAD_CAT_ID   = 68409
ELEMENT_SET_NO = 999
REV_AT_EPOCH   = 74
BSTAR          = .96695715E-4
MEAN_MOTION_DOT = .1915E-4
MEAN_MOTION_DDOT = 0

CCSDS_OMM_VERS = 2.0
CREATION_DATE  = 
ORIGINATOR     = 

OBJECT_NAME    = ELECTRON R/B
OBJECT_ID      = 2026-065C
CENTER_NAME    = EARTH
REF_FRAME      = TEME
TIME_SYSTEM    = UTC
MEAN_ELEMENT_THEORY = SGP/SGP4

EPOCH          = 2026-04-03T08:51:35.031744
MEAN_MOTION    = 16.33068968
ECCENTRICITY   = .0069854
INCLINATION    = 97.3609
RA_OF_ASC_NODE = 336.1707
ARG_OF_PERICENTER = 198.0172
MEAN_ANOMALY   = 161.8648

EPHEMERIS_TYPE = 0
CLASSIFICATION_TYPE = U
NORAD_CAT_ID   = 68410
ELEMENT_SET_NO = 999
REV_AT_EPOCH   = 88
BSTAR          = .48423E-3
MEAN_MOTION_DOT = .13281109E+0
MEAN_MOTION_DDOT = .16595E-5

CCSDS_OMM_VERS = 2.0
CREATION_DATE  = 
ORIGINATOR     = 

OBJECT_NAME    = ELECTRON KICK STAGE R/B
OBJECT_ID      = 2026-065D
CENTER_NAME    = EARTH
REF_FRAME      = TEME
TIME_SYSTEM    = UTC
MEAN_ELEMENT_THEORY = SGP/SGP4

EPOCH          = 2026-04-03T10:37:35.976864
MEAN_MOTION    = 15.83817593
ECCENTRICITY   = .0176039
INCLINATION    = 97.4160
RA_OF_ASC_NODE = 336.0543
ARG_OF_PERICENTER = 10.7329
MEAN_ANOMALY   = 349.7619

EPHEMERIS_TYPE = 0
CLASSIFICATION_TYPE = U
NORAD_CAT_ID   = 68411
ELEMENT_SET_NO = 999
REV_AT_EPOCH   = 96
BSTAR          = .34497E-3
MEAN_MOTION_DOT = .267226E-2
MEAN_MOTION_DDOT = .22379E-5

